<?xml version="1.0" encoding="UTF-8"?>
<kml xmlns="http://www.opengis.net/kml/2.2">
  <Document>
    <name>Example Points</name>
    <description>Sample KML file with various locations</description>
    <Placemark>
      <name>San Francisco</name>
      <description>City by the Bay</description>
      <Point>
        <coordinates>-122.4194,37.7749,0</coordinates>
      </Point>
    </Placemark>
    <Placemark>
      <name>Los Angeles</name>
      <description>City of Angels</description>
      <Point>
        <coordinates>-118.2437,34.0522,0</coordinates>
      </Point>
    </Placemark>
    <Placemark>
      <name>New York</name>
      <description>The Big Apple</description>
      <Point>
        <coordinates>-74.0060,40.7128,0</coordinates>
      </Point>
    </Placemark>
  </Document>
</kml>
